     3.03           N: GNSS NAV DATA    M: MIXED            RINEX VERSION / TYPE
GR30 V4.20          ASI-egeos           20210713 235942 UTC PGM / RUN BY / DATE
GAL    4.8000D+01  2.8906D-01  9.9182D-03                   IONOSPHERIC CORR
GPSA   4.6566D-09  1.4901D-08 -5.9605D-08 -1.1921D-07       IONOSPHERIC CORR
GPSB   7.9872D+04  8.1920D+04 -6.5536D+04 -4.5875D+05       IONOSPHERIC CORR
BDSA   6.5193D-09  2.2352D-08 -2.3842D-07  3.5763D-07 W 05  IONOSPHERIC CORR
BDSA   6.5193D-09  2.2352D-08 -2.3842D-07  3.5763D-07 O 06  IONOSPHERIC CORR
BDSA   6.5193D-09  2.2352D-08 -2.3842D-07  3.5763D-07 W 07  IONOSPHERIC CORR
BDSA   5.5879D-09  2.9802D-08 -2.3842D-07  3.5763D-07 I 08  IONOSPHERIC CORR
BDSA   6.5193D-09  2.2352D-08 -2.3842D-07  3.5763D-07 S 09  IONOSPHERIC CORR
BDSA   6.5193D-09  2.2352D-08 -2.3842D-07  3.5763D-07 W 10  IONOSPHERIC CORR
BDSA   6.5193D-09  2.2352D-08 -2.3842D-07  3.5763D-07 O 11  IONOSPHERIC CORR
BDSA   6.5193D-09  2.2352D-08 -2.3842D-07  3.5763D-07 M 12  IONOSPHERIC CORR
BDSA   6.5193D-09  2.2352D-08 -2.3842D-07  3.5763D-07 K 13  IONOSPHERIC CORR
BDSA   6.5193D-09  2.2352D-08 -2.3842D-07  3.5763D-07 Q 14  IONOSPHERIC CORR
BDSA   6.5193D-09  2.2352D-08 -2.3842D-07  3.5763D-07 Q 16  IONOSPHERIC CORR
BDSA   6.5193D-09  2.2352D-08 -2.3842D-07  3.5763D-07 W 19  IONOSPHERIC CORR
BDSA   6.5193D-09  2.2352D-08 -2.3842D-07  3.5763D-07 W 20  IONOSPHERIC CORR
BDSA   6.5193D-09  2.2352D-08 -2.3842D-07  3.5763D-07 M 21  IONOSPHERIC CORR
BDSA   6.5193D-09  2.2352D-08 -2.3842D-07  3.5763D-07 X 22  IONOSPHERIC CORR
BDSA   6.5193D-09  2.2352D-08 -2.3842D-07  3.5763D-07 W 23  IONOSPHERIC CORR
BDSA   6.5193D-09  2.2352D-08 -2.3842D-07  3.5763D-07 S 24  IONOSPHERIC CORR
BDSA   6.5193D-09  2.2352D-08 -2.3842D-07  3.5763D-07 U 25  IONOSPHERIC CORR
BDSA   5.5879D-09  2.9802D-08 -2.3842D-07  3.5763D-07 I 26  IONOSPHERIC CORR
BDSA   6.5193D-09  2.2352D-08 -2.3842D-07  3.5763D-07 S 27  IONOSPHERIC CORR
BDSA   6.5193D-09  2.2352D-08 -2.3842D-07  3.5763D-07 X 28  IONOSPHERIC CORR
BDSA   6.5193D-09  2.2352D-08 -2.3842D-07  3.5763D-07 U 29  IONOSPHERIC CORR
BDSA   6.5193D-09  2.2352D-08 -2.3842D-07  3.5763D-07 U 30  IONOSPHERIC CORR
BDSB   1.0445D+05  3.4406D+05 -1.2452D+06  9.1750D+05 W 05  IONOSPHERIC CORR
BDSB   1.0445D+05  4.4237D+05 -1.9005D+06  1.4418D+06 O 06  IONOSPHERIC CORR
BDSB   1.0445D+05  3.4406D+05 -1.2452D+06  9.1750D+05 W 07  IONOSPHERIC CORR
BDSB   1.0240D+05  4.2598D+05 -1.7695D+06  1.3107D+06 I 08  IONOSPHERIC CORR
BDSB   1.0650D+05  3.6045D+05 -1.2452D+06  8.5197D+05 S 09  IONOSPHERIC CORR
BDSB   1.0445D+05  3.4406D+05 -1.2452D+06  9.1750D+05 W 10  IONOSPHERIC CORR
BDSB   1.0445D+05  4.4237D+05 -1.9005D+06  1.4418D+06 O 11  IONOSPHERIC CORR
BDSB   1.0240D+05  4.4237D+05 -1.9005D+06  1.4418D+06 M 12  IONOSPHERIC CORR
BDSB   1.0240D+05  4.2598D+05 -1.9005D+06  1.3763D+06 K 13  IONOSPHERIC CORR
BDSB   1.0445D+05  4.5875D+05 -1.9661D+06  1.4418D+06 Q 14  IONOSPHERIC CORR
BDSB   1.0445D+05  4.5875D+05 -1.9661D+06  1.4418D+06 Q 16  IONOSPHERIC CORR
BDSB   1.0445D+05  3.4406D+05 -1.2452D+06  9.1750D+05 W 19  IONOSPHERIC CORR
BDSB   1.0445D+05  3.4406D+05 -1.2452D+06  9.1750D+05 W 20  IONOSPHERIC CORR
BDSB   1.0240D+05  4.4237D+05 -1.9005D+06  1.4418D+06 M 21  IONOSPHERIC CORR
BDSB   1.0445D+05  3.4406D+05 -1.2452D+06  9.1750D+05 X 22  IONOSPHERIC CORR
BDSB   1.0445D+05  3.4406D+05 -1.2452D+06  9.1750D+05 W 23  IONOSPHERIC CORR
BDSB   1.0650D+05  3.6045D+05 -1.2452D+06  8.5197D+05 S 24  IONOSPHERIC CORR
BDSB   1.0650D+05  3.1130D+05 -1.1141D+06  7.8643D+05 U 25  IONOSPHERIC CORR
BDSB   1.0240D+05  4.2598D+05 -1.7695D+06  1.3107D+06 I 26  IONOSPHERIC CORR
BDSB   1.0650D+05  3.6045D+05 -1.2452D+06  8.5197D+05 S 27  IONOSPHERIC CORR
BDSB   1.0445D+05  3.4406D+05 -1.2452D+06  9.1750D+05 X 28  IONOSPHERIC CORR
BDSB   1.0650D+05  3.1130D+05 -1.1141D+06  7.8643D+05 U 29  IONOSPHERIC CORR
BDSB   1.0650D+05  3.1130D+05 -1.1141D+06  7.8643D+05 U 30  IONOSPHERIC CORR
GPUT -9.3132257462D-10-8.881784197D-16 405504 2166          TIME SYSTEM CORR
GLUT  1.4435499907D-08 0.000000000D+00      0    0          TIME SYSTEM CORR
GAUT  0.0000000000D+00 0.000000000D+00 172800 2166          TIME SYSTEM CORR
GPGA  3.5797711462D-09 6.217248938D-15 259200 2166          TIME SYSTEM CORR
BDUT -6.5192580223D-09 0.000000000D+00 259145  810          TIME SYSTEM CORR
    18    18  1929     7                                    LEAP SECONDS
                                                            END OF HEADER
E01 2021 07 14 08 10 00-1.149763702415D-03-8.100187187665D-12 0.000000000000D+00
     9.700000000000D+01-1.043750000000D+01 3.352282493164D-09-1.272751882059D+00
    -5.643814802170D-07 1.671145437285D-04 6.202608346939D-06 5.440591745377D+03
     2.886000000000D+05-2.793967723846D-08-3.114278776383D-01-2.048909664154D-08
     9.775325969221D-01 2.160937500000D+02-1.738405984707D+00-5.619519789841D-09
    -3.882304570711D-10 5.130000000000D+02 2.166000000000D+03 0.000000000000D+00
     3.120000000000D+00 0.000000000000D+00 2.328306436539D-10 2.328306436539D-10
     2.892640000000D+05
E01 2021 07 14 08 10 00-1.149763003923D-03-8.085976332950D-12 0.000000000000D+00
     9.700000000000D+01-1.043750000000D+01 3.352282493164D-09-1.272751882059D+00
    -5.643814802170D-07 1.671145437285D-04 6.202608346939D-06 5.440591745377D+03
     2.886000000000D+05-2.793967723846D-08-3.114278776383D-01-2.048909664154D-08
     9.775325969221D-01 2.160937500000D+02-1.738405984707D+00-5.619519789841D-09
    -3.882304570711D-10 2.580000000000D+02 2.166000000000D+03 0.000000000000D+00
     3.120000000000D+00 0.000000000000D+00 2.328306436539D-10 0.000000000000D+00
     2.893000000000D+05
E31 2021 07 14 08 10 00-4.832346457988D-04-4.547473508865D-13 0.000000000000D+00
     9.700000000000D+01-9.281250000000D+00 3.394427105800D-09-2.057789892580D+00
    -3.632158041000D-07 3.403297159821D-04 5.917623639107D-06 5.440601558685D+03
     2.886000000000D+05-1.303851604462D-08-3.143368726839D-01 1.862645149231D-08
     9.770794448808D-01 2.215937500000D+02-1.765757338949D+00-5.616662527968D-09
    -3.267993267894D-10 2.580000000000D+02 2.166000000000D+03 0.000000000000D+00
     3.120000000000D+00 0.000000000000D+00 4.889443516731D-09 0.000000000000D+00
     2.893000000000D+05
E24 2021 07 14 08 10 00-1.007030776236D-03-2.049205249932D-11 0.000000000000D+00
     9.700000000000D+01-1.543750000000D+01 3.440143295777D-09 1.152047807484D+00
    -6.407499313354D-07 3.520620521158D-04 5.725771188736D-06 5.440592390060D+03
     2.886000000000D+05-1.117587089539D-08-3.095957351279D-01 7.450580596924D-08
     9.750401531704D-01 2.240312500000D+02 5.586465267388D-01-5.695594387225D-09
    -3.114415442190D-10 2.580000000000D+02 2.166000000000D+03 0.000000000000D+00
     3.120000000000D+00 0.000000000000D+00-3.259629011154D-09 0.000000000000D+00
     2.893000000000D+05
E12 2021 07 14 08 10 00 5.111897364259D-03-1.894306933536D-11 0.000000000000D+00
     9.700000000000D+01 1.082500000000D+02 2.810117052655D-09-2.536780907336D-01
     5.098059773445D-06 3.409242490306D-04 4.384666681290D-06 5.440606580734D+03
     2.886000000000D+05 1.303851604462D-08 1.771509579650D+00-3.725290298462D-08
     9.919350239496D-01 2.575937500000D+02 6.590681696347D-01-5.677736500515D-09
     2.253665302777D-10 2.580000000000D+02 2.166000000000D+03 0.000000000000D+00
     3.120000000000D+00 0.000000000000D+00-1.024454832077D-08 0.000000000000D+00
     2.893000000000D+05
R04 2021 07 14 08 15 00 9.571108967066D-05 1.818989403546D-12 2.894700000000D+05
     6.836885253906D+03 2.748842239380D-01-9.313225746155D-10 0.000000000000D+00
     2.434627929688D+04 4.128122329712D-01 3.725290298462D-09 6.000000000000D+00
    -3.338847167969D+03 3.542048454285D+00 1.862645149231D-09 0.000000000000D+00
G10 2021 07 14 10 00 00-1.617642119527D-04-7.617018127348D-12 0.000000000000D+00
     9.300000000000D+01-9.109375000000D+01 4.269463554580D-09 2.823439928795D+00
    -4.697591066360D-06 6.720759090967D-03 5.073845386505D-06 5.153676065445D+03
     2.952000000000D+05 1.490116119385D-08 3.003957758487D+00-3.539025783539D-08
     9.701426267459D-01 2.861875000000D+02-2.572258884153D+00-8.062121534008D-09
    -1.985797002130D-10 1.000000000000D+00 2.166000000000D+03 0.000000000000D+00
     2.000000000000D+00 0.000000000000D+00 2.328306436539D-09 9.300000000000D+01
     2.897100000000D+05                   
R09 2021 07 14 08 45 00 2.836808562279D-06 1.818989403546D-12 2.898000000000D+05
     2.377317138672D+04 1.249306678772D+00-9.313225746155D-10 0.000000000000D+00
    -6.544174804688D+02 1.058359146118D-01 0.000000000000D+00-2.000000000000D+00
     9.141864746094D+03-3.255373001099D+00-0.000000000000D+00 0.000000000000D+00
R18 2021 07 14 08 45 00 8.336454629898D-05 9.094947017729D-13 2.898000000000D+05
    -4.849109863281D+03-1.458951950073D+00 0.000000000000D+00 0.000000000000D+00
     1.777792919922D+04 1.936718940735D+00 4.656612873077D-09-3.000000000000D+00
     1.766871093750D+04-2.345555305481D+00-0.000000000000D+00 0.000000000000D+00
R19 2021 07 14 08 45 00-1.514581963420D-04-9.094947017729D-13 2.898000000000D+05
     7.651560058594D+03-2.148552894592D+00-0.000000000000D+00 0.000000000000D+00
     6.973688964844D+03 2.370057106018D+00 2.793967723846D-09 3.000000000000D+00
     2.330492236328D+04-4.507064819336D-03-1.862645149231D-09 0.000000000000D+00
R10 2021 07 14 08 45 00-7.287692278624D-05-0.000000000000D+00 2.898000000000D+05
     1.216137646484D+04 2.834808349609D+00-0.000000000000D+00 0.000000000000D+00
    -8.124355468750D+03 3.982124328613D-01-0.000000000000D+00-7.000000000000D+00
     2.091407812500D+04-1.487483978271D+00-1.862645149231D-09 0.000000000000D+00
R03 2021 07 14 08 45 00 3.947969526052D-05 9.094947017729D-13 2.898000000000D+05
    -2.655491210938D+03-7.325019836426D-01 0.000000000000D+00 0.000000000000D+00
     1.791082128906D+04-2.348206520081D+00 4.656612873077D-09 5.000000000000D+00
     1.803563525391D+04 2.224845886230D+00-0.000000000000D+00 0.000000000000D+00
